TEVEL2-2                
1 63219U 25052K   26068.64848259  .00020339  00000+0  69428-3 0  9991
2 63219  97.3987 324.7700 0004693 105.7930 254.3828 15.30343745 54855
STARLINK-35473          
1 65937U 25225AD  26068.55038796  .00020370  00000+0  69852-3 0  9995
2 65937  53.1580 166.5474 0001287  67.5136 292.6001 15.30175812 23494
